{"type": "FeatureCollection", "features": [{"type": "Feature", "geometry": {"type": "Point", "coordinates": [118.088238, 24.46571]}, "properties": {"category": "垃圾桶", "color": "#01774b"}}, {"type": "Feature", "geometry": {"type": "Point", "coordinates": [118.088552, 24.465692]}, "properties": {"category": "垃圾桶", "color": "#01774b"}}, {"type": "Feature", "geometry": {"type": "Point", "coordinates": [118.08906, 24.465503]}, "properties": {"category": "垃圾桶", "color": "#01774b"}}, {"type": "Feature", "geometry": {"type": "Point", "coordinates": [118.089232, 24.465441]}, "properties": {"category": "垃圾桶", "color": "#01774b"}}, {"type": "Feature", "geometry": {"type": "Point", "coordinates": [118.089601, 24.465418]}, "properties": {"category": "路灯", "color": "#e02020"}}, {"type": "Feature", "geometry": {"type": "Point", "coordinates": [118.089394, 24.465343]}, "properties": {"category": "路灯", "color": "#e02020"}}, {"type": "Feature", "geometry": {"type": "Point", "coordinates": [118.089215, 24.465308]}, "properties": {"category": "路灯", "color": "#e02020"}}, {"type": "Feature", "geometry": {"type": "Point", "coordinates": [118.090609, 24.465013]}, "properties": {"category": "路灯", "color": "#e02020"}}, {"type": "Feature", "geometry": {"type": "Point", "coordinates": [118.090006, 24.464902]}, "properties": {"category": "路灯", "color": "#e02020"}}, {"type": "Feature", "geometry": {"type": "Point", "coordinates": [118.088384, 24.464766]}, "properties": {"category": "路灯", "color": "#e02020"}}, {"type": "Feature", "geometry": {"type": "Point", "coordinates": [118.08925, 24.464758]}, "properties": {"category": "路灯", "color": "#e02020"}}, {"type": "Feature", "geometry": {"type": "Point", "coordinates": [118.090037, 24.464783]}, "properties": {"category": "垃圾桶", "color": "#01774b"}}, {"type": "Feature", "geometry": {"type": "Point", "coordinates": [118.088569, 24.464651]}, "properties": {"category": "路灯", "color": "#e02020"}}, {"type": "Feature", "geometry": {"type": "Point", "coordinates": [118.08841, 24.464631]}, "properties": {"category": "反光镜", "color": "#483e52"}}, {"type": "Feature", "geometry": {"type": "Point", "coordinates": [118.088355, 24.464519]}, "properties": {"category": "垃圾桶", "color": "#01774b"}}, {"type": "Feature", "geometry": {"type": "Point", "coordinates": [118.088777, 24.464465]}, "properties": {"category": "灭火器", "color": "#e41961"}}, {"type": "Feature", "geometry": {"type": "Point", "coordinates": [118.090107, 24.464482]}, "properties": {"category": "晾衣架", "color": "#e87110"}}, {"type": "Feature", "geometry": {"type": "Point", "coordinates": [118.090008, 24.464439]}, "properties": {"category": "路灯", "color": "#e02020"}}, {"type": "Feature", "geometry": {"type": "Point", "coordinates": [118.088853, 24.464373]}, "properties": {"category": "路灯", "color": "#e02020"}}, {"type": "Feature", "geometry": {"type": "Point", "coordinates": [118.088677, 24.464343]}, "properties": {"category": "垃圾桶", "color": "#01774b"}}, {"type": "Feature", "geometry": {"type": "Point", "coordinates": [118.090077, 24.464316]}, "properties": {"category": "宣传栏", "color": "#62bc56"}}, {"type": "Feature", "geometry": {"type": "Point", "coordinates": [118.088626, 24.463903]}, "properties": {"category": "晾衣架", "color": "#e87110"}}, {"type": "Feature", "geometry": {"type": "Point", "coordinates": [118.088917, 24.463904]}, "properties": {"category": "路灯", "color": "#e02020"}}, {"type": "Feature", "geometry": {"type": "Point", "coordinates": [118.088808, 24.463871]}, "properties": {"category": "路灯", "color": "#e02020"}}, {"type": "Feature", "geometry": {"type": "Point", "coordinates": [118.088656, 24.463756]}, "properties": {"category": "宣传栏", "color": "#62bc56"}}, {"type": "Feature", "geometry": {"type": "Point", "coordinates": [118.088901, 24.463736]}, "properties": {"category": "垃圾桶", "color": "#01774b"}}, {"type": "Feature", "geometry": {"type": "Point", "coordinates": [118.089331, 24.463107]}, "properties": {"category": "晾衣架", "color": "#e87110"}}, {"type": "Feature", "geometry": {"type": "Point", "coordinates": [118.089889, 24.463124]}, "properties": {"category": "灭火器", "color": "#e41961"}}, {"type": "Feature", "geometry": {"type": "Point", "coordinates": [118.08962, 24.463086]}, "properties": {"category": "晾衣架", "color": "#e87110"}}, {"type": "Feature", "geometry": {"type": "Point", "coordinates": [118.089222, 24.463045]}, "properties": {"category": "宣传栏", "color": "#62bc56"}}, {"type": "Feature", "geometry": {"type": "Point", "coordinates": [118.089917, 24.463027]}, "properties": {"category": "垃圾桶", "color": "#01774b"}}, {"type": "Feature", "geometry": {"type": "Point", "coordinates": [118.087535, 24.462725]}, "properties": {"category": "指示牌", "color": "#0d537f"}}, {"type": "Feature", "geometry": {"type": "Point", "coordinates": [118.090217, 24.462732]}, "properties": {"category": "反光镜", "color": "#483e52"}}, {"type": "Feature", "geometry": {"type": "Point", "coordinates": [118.087485, 24.462633]}, "properties": {"category": "路灯", "color": "#e02020"}}, {"type": "Feature", "geometry": {"type": "Point", "coordinates": [118.089278, 24.462655]}, "properties": {"category": "宣传栏", "color": "#62bc56"}}, {"type": "Feature", "geometry": {"type": "Point", "coordinates": [118.087604, 24.462488]}, "properties": {"category": "路灯", "color": "#e02020"}}, {"type": "Feature", "geometry": {"type": "Point", "coordinates": [118.089285, 24.462466]}, "properties": {"category": "垃圾桶", "color": "#01774b"}}, {"type": "Feature", "geometry": {"type": "Point", "coordinates": [118.089812, 24.462416]}, "properties": {"category": "路灯", "color": "#e02020"}}, {"type": "Feature", "geometry": {"type": "Point", "coordinates": [118.090914, 24.462447]}, "properties": {"category": "路灯", "color": "#e02020"}}, {"type": "Feature", "geometry": {"type": "Point", "coordinates": [118.089178, 24.462378]}, "properties": {"category": "灭火器", "color": "#e41961"}}, {"type": "Feature", "geometry": {"type": "Point", "coordinates": [118.08998, 24.462391]}, "properties": {"category": "路灯", "color": "#e02020"}}, {"type": "Feature", "geometry": {"type": "Point", "coordinates": [118.091173, 24.462396]}, "properties": {"category": "反光镜", "color": "#483e52"}}, {"type": "Feature", "geometry": {"type": "Point", "coordinates": [118.087355, 24.462205]}, "properties": {"category": "指示牌", "color": "#0d537f"}}, {"type": "Feature", "geometry": {"type": "Point", "coordinates": [118.088346, 24.462212]}, "properties": {"category": "垃圾桶", "color": "#01774b"}}, {"type": "Feature", "geometry": {"type": "Point", "coordinates": [118.089048, 24.462232]}, "properties": {"category": "垃圾桶", "color": "#01774b"}}, {"type": "Feature", "geometry": {"type": "Point", "coordinates": [118.088427, 24.462184]}, "properties": {"category": "指示牌", "color": "#0d537f"}}, {"type": "Feature", "geometry": {"type": "Point", "coordinates": [118.089553, 24.462206]}, "properties": {"category": "晾衣架", "color": "#e87110"}}, {"type": "Feature", "geometry": {"type": "Point", "coordinates": [118.087315, 24.462116]}, "properties": {"category": "路灯", "color": "#e02020"}}, {"type": "Feature", "geometry": {"type": "Point", "coordinates": [118.088279, 24.462139]}, "properties": {"category": "路灯", "color": "#e02020"}}, {"type": "Feature", "geometry": {"type": "Point", "coordinates": [118.091316, 24.462231]}, "properties": {"category": "灭火器", "color": "#e41961"}}, {"type": "Feature", "geometry": {"type": "Point", "coordinates": [118.087421, 24.462112]}, "properties": {"category": "指示牌", "color": "#0d537f"}}, {"type": "Feature", "geometry": {"type": "Point", "coordinates": [118.091173, 24.462209]}, "properties": {"category": "路灯", "color": "#e02020"}}, {"type": "Feature", "geometry": {"type": "Point", "coordinates": [118.087996, 24.462118]}, "properties": {"category": "路灯", "color": "#e02020"}}, {"type": "Feature", "geometry": {"type": "Point", "coordinates": [118.087621, 24.46209]}, "properties": {"category": "指示牌", "color": "#0d537f"}}, {"type": "Feature", "geometry": {"type": "Point", "coordinates": [118.087735, 24.462096]}, "properties": {"category": "路灯", "color": "#e02020"}}, {"type": "Feature", "geometry": {"type": "Point", "coordinates": [118.091454, 24.462199]}, "properties": {"category": "宣传栏", "color": "#62bc56"}}, {"type": "Feature", "geometry": {"type": "Point", "coordinates": [118.088501, 24.462104]}, "properties": {"category": "路灯", "color": "#e02020"}}, {"type": "Feature", "geometry": {"type": "Point", "coordinates": [118.091075, 24.462178]}, "properties": {"category": "反光镜", "color": "#483e52"}}, {"type": "Feature", "geometry": {"type": "Point", "coordinates": [118.087489, 24.462009]}, "properties": {"category": "路灯", "color": "#e02020"}}, {"type": "Feature", "geometry": {"type": "Point", "coordinates": [118.089149, 24.462054]}, "properties": {"category": "灭火器", "color": "#e41961"}}, {"type": "Feature", "geometry": {"type": "Point", "coordinates": [118.08899, 24.462022]}, "properties": {"category": "路灯", "color": "#e02020"}}, {"type": "Feature", "geometry": {"type": "Point", "coordinates": [118.087416, 24.461965]}, "properties": {"category": "指示牌", "color": "#0d537f"}}, {"type": "Feature", "geometry": {"type": "Point", "coordinates": [118.089782, 24.462013]}, "properties": {"category": "垃圾桶", "color": "#01774b"}}, {"type": "Feature", "geometry": {"type": "Point", "coordinates": [118.089879, 24.462018]}, "properties": {"category": "指示牌", "color": "#0d537f"}}, {"type": "Feature", "geometry": {"type": "Point", "coordinates": [118.088644, 24.461983]}, "properties": {"category": "宣传栏", "color": "#62bc56"}}, {"type": "Feature", "geometry": {"type": "Point", "coordinates": [118.089316, 24.461986]}, "properties": {"category": "路灯", "color": "#e02020"}}, {"type": "Feature", "geometry": {"type": "Point", "coordinates": [118.089134, 24.461974]}, "properties": {"category": "反光镜", "color": "#483e52"}}, {"type": "Feature", "geometry": {"type": "Point", "coordinates": [118.089483, 24.461983]}, "properties": {"category": "路灯", "color": "#e02020"}}, {"type": "Feature", "geometry": {"type": "Point", "coordinates": [118.088715, 24.461936]}, "properties": {"category": "路灯", "color": "#e02020"}}, {"type": "Feature", "geometry": {"type": "Point", "coordinates": [118.089615, 24.461981]}, "properties": {"category": "宣传栏", "color": "#62bc56"}}, {"type": "Feature", "geometry": {"type": "Point", "coordinates": [118.086773, 24.46188]}, "properties": {"category": "路灯", "color": "#e02020"}}, {"type": "Feature", "geometry": {"type": "Point", "coordinates": [118.08846, 24.461934]}, "properties": {"category": "路灯", "color": "#e02020"}}, {"type": "Feature", "geometry": {"type": "Point", "coordinates": [118.090555, 24.461963]}, "properties": {"category": "灭火器", "color": "#e41961"}}, {"type": "Feature", "geometry": {"type": "Point", "coordinates": [118.088331, 24.461856]}, "properties": {"category": "晾衣架", "color": "#e87110"}}, {"type": "Feature", "geometry": {"type": "Point", "coordinates": [118.089112, 24.461878]}, "properties": {"category": "路灯", "color": "#e02020"}}, {"type": "Feature", "geometry": {"type": "Point", "coordinates": [118.090111, 24.461884]}, "properties": {"category": "垃圾桶", "color": "#01774b"}}, {"type": "Feature", "geometry": {"type": "Point", "coordinates": [118.090011, 24.461874]}, "properties": {"category": "垃圾桶", "color": "#01774b"}}, {"type": "Feature", "geometry": {"type": "Point", "coordinates": [118.090357, 24.461861]}, "properties": {"category": "灭火器", "color": "#e41961"}}, {"type": "Feature", "geometry": {"type": "Point", "coordinates": [118.09136, 24.461883]}, "properties": {"category": "垃圾桶", "color": "#01774b"}}, {"type": "Feature", "geometry": {"type": "Point", "coordinates": [118.088454, 24.46176]}, "properties": {"category": "路灯", "color": "#e02020"}}, {"type": "Feature", "geometry": {"type": "Point", "coordinates": [118.088781, 24.461777]}, "properties": {"category": "路灯", "color": "#e02020"}}, {"type": "Feature", "geometry": {"type": "Point", "coordinates": [118.089141, 24.461752]}, "properties": {"category": "路灯", "color": "#e02020"}}, {"type": "Feature", "geometry": {"type": "Point", "coordinates": [118.088445, 24.461629]}, "properties": {"category": "指示牌", "color": "#0d537f"}}, {"type": "Feature", "geometry": {"type": "Point", "coordinates": [118.089277, 24.461653]}, "properties": {"category": "宣传栏", "color": "#62bc56"}}, {"type": "Feature", "geometry": {"type": "Point", "coordinates": [118.088851, 24.461609]}, "properties": {"category": "路灯", "color": "#e02020"}}, {"type": "Feature", "geometry": {"type": "Point", "coordinates": [118.091328, 24.46165]}, "properties": {"category": "指示牌", "color": "#0d537f"}}, {"type": "Feature", "geometry": {"type": "Point", "coordinates": [118.088461, 24.46156]}, "properties": {"category": "路灯", "color": "#e02020"}}, {"type": "Feature", "geometry": {"type": "Point", "coordinates": [118.089059, 24.461563]}, "properties": {"category": "晾衣架", "color": "#e87110"}}, {"type": "Feature", "geometry": {"type": "Point", "coordinates": [118.088981, 24.461558]}, "properties": {"category": "宣传栏", "color": "#62bc56"}}, {"type": "Feature", "geometry": {"type": "Point", "coordinates": [118.089212, 24.461553]}, "properties": {"category": "路灯", "color": "#e02020"}}, {"type": "Feature", "geometry": {"type": "Point", "coordinates": [118.088416, 24.461391]}, "properties": {"category": "路灯", "color": "#e02020"}}, {"type": "Feature", "geometry": {"type": "Point", "coordinates": [118.08892, 24.461404]}, "properties": {"category": "晾衣架", "color": "#e87110"}}, {"type": "Feature", "geometry": {"type": "Point", "coordinates": [118.089922, 24.461387]}, "properties": {"category": "路灯", "color": "#e02020"}}, {"type": "Feature", "geometry": {"type": "Point", "coordinates": [118.090084, 24.461393]}, "properties": {"category": "指示牌", "color": "#0d537f"}}, {"type": "Feature", "geometry": {"type": "Point", "coordinates": [118.086024, 24.461283]}, "properties": {"category": "座椅", "color": "#f4ef6b"}}, {"type": "Feature", "geometry": {"type": "Point", "coordinates": [118.088961, 24.46133]}, "properties": {"category": "路灯", "color": "#e02020"}}, {"type": "Feature", "geometry": {"type": "Point", "coordinates": [118.086006, 24.461182]}, "properties": {"category": "路灯", "color": "#e02020"}}, {"type": "Feature", "geometry": {"type": "Point", "coordinates": [118.089036, 24.4612]}, "properties": {"category": "路灯", "color": "#e02020"}}, {"type": "Feature", "geometry": {"type": "Point", "coordinates": [118.09022, 24.461235]}, "properties": {"category": "路灯", "color": "#e02020"}}, {"type": "Feature", "geometry": {"type": "Point", "coordinates": [118.086134, 24.461115]}, "properties": {"category": "指示牌", "color": "#0d537f"}}, {"type": "Feature", "geometry": {"type": "Point", "coordinates": [118.087798, 24.461128]}, "properties": {"category": "路灯", "color": "#e02020"}}, {"type": "Feature", "geometry": {"type": "Point", "coordinates": [118.087451, 24.461037]}, "properties": {"category": "路灯", "color": "#e02020"}}, {"type": "Feature", "geometry": {"type": "Point", "coordinates": [118.088088, 24.461135]}, "properties": {"category": "路灯", "color": "#e02020"}}, {"type": "Feature", "geometry": {"type": "Point", "coordinates": [118.088204, 24.461138]}, "properties": {"category": "晾衣架", "color": "#e87110"}}, {"type": "Feature", "geometry": {"type": "Point", "coordinates": [118.08831, 24.461142]}, "properties": {"category": "路灯", "color": "#e02020"}}, {"type": "Feature", "geometry": {"type": "Point", "coordinates": [118.088089, 24.461018]}, "properties": {"category": "晾衣架", "color": "#e87110"}}, {"type": "Feature", "geometry": {"type": "Point", "coordinates": [118.088907, 24.46104]}, "properties": {"category": "路灯", "color": "#e02020"}}, {"type": "Feature", "geometry": {"type": "Point", "coordinates": [118.088417, 24.460996]}, "properties": {"category": "路灯", "color": "#e02020"}}, {"type": "Feature", "geometry": {"type": "Point", "coordinates": [118.086201, 24.460897]}, "properties": {"category": "垃圾桶", "color": "#01774b"}}, {"type": "Feature", "geometry": {"type": "Point", "coordinates": [118.089035, 24.460948]}, "properties": {"category": "路灯", "color": "#e02020"}}, {"type": "Feature", "geometry": {"type": "Point", "coordinates": [118.086139, 24.460777]}, "properties": {"category": "路灯", "color": "#e02020"}}, {"type": "Feature", "geometry": {"type": "Point", "coordinates": [118.08745, 24.460812]}, "properties": {"category": "路灯", "color": "#e02020"}}, {"type": "Feature", "geometry": {"type": "Point", "coordinates": [118.088286, 24.460838]}, "properties": {"category": "指示牌", "color": "#0d537f"}}, {"type": "Feature", "geometry": {"type": "Point", "coordinates": [118.089035, 24.46079]}, "properties": {"category": "路灯", "color": "#e02020"}}, {"type": "Feature", "geometry": {"type": "Point", "coordinates": [118.086887, 24.460721]}, "properties": {"category": "垃圾桶", "color": "#01774b"}}, {"type": "Feature", "geometry": {"type": "Point", "coordinates": [118.087028, 24.460705]}, "properties": {"category": "灭火器", "color": "#e41961"}}, {"type": "Feature", "geometry": {"type": "Point", "coordinates": [118.088395, 24.460745]}, "properties": {"category": "指示牌", "color": "#0d537f"}}, {"type": "Feature", "geometry": {"type": "Point", "coordinates": [118.089281, 24.460763]}, "properties": {"category": "灭火器", "color": "#e41961"}}, {"type": "Feature", "geometry": {"type": "Point", "coordinates": [118.08959, 24.460772]}, "properties": {"category": "垃圾桶", "color": "#01774b"}}, {"type": "Feature", "geometry": {"type": "Point", "coordinates": [118.086273, 24.460675]}, "properties": {"category": "指示牌", "color": "#0d537f"}}, {"type": "Feature", "geometry": {"type": "Point", "coordinates": [118.089389, 24.460758]}, "properties": {"category": "垃圾桶", "color": "#01774b"}}, {"type": "Feature", "geometry": {"type": "Point", "coordinates": [118.089486, 24.460761]}, "properties": {"category": "垃圾桶", "color": "#01774b"}}, {"type": "Feature", "geometry": {"type": "Point", "coordinates": [118.090149, 24.460758]}, "properties": {"category": "宣传栏", "color": "#62bc56"}}, {"type": "Feature", "geometry": {"type": "Point", "coordinates": [118.086624, 24.460655]}, "properties": {"category": "指示牌", "color": "#0d537f"}}, {"type": "Feature", "geometry": {"type": "Point", "coordinates": [118.088386, 24.460669]}, "properties": {"category": "路灯", "color": "#e02020"}}, {"type": "Feature", "geometry": {"type": "Point", "coordinates": [118.086776, 24.460607]}, "properties": {"category": "路灯", "color": "#e02020"}}, {"type": "Feature", "geometry": {"type": "Point", "coordinates": [118.086931, 24.460605]}, "properties": {"category": "路灯", "color": "#e02020"}}, {"type": "Feature", "geometry": {"type": "Point", "coordinates": [118.087194, 24.460604]}, "properties": {"category": "指示牌", "color": "#0d537f"}}, {"type": "Feature", "geometry": {"type": "Point", "coordinates": [118.087095, 24.460594]}, "properties": {"category": "宣传栏", "color": "#62bc56"}}, {"type": "Feature", "geometry": {"type": "Point", "coordinates": [118.087424, 24.460596]}, "properties": {"category": "反光镜", "color": "#483e52"}}, {"type": "Feature", "geometry": {"type": "Point", "coordinates": [118.089025, 24.460636]}, "properties": {"category": "指示牌", "color": "#0d537f"}}, {"type": "Feature", "geometry": {"type": "Point", "coordinates": [118.087608, 24.460563]}, "properties": {"category": "宣传栏", "color": "#62bc56"}}, {"type": "Feature", "geometry": {"type": "Point", "coordinates": [118.087693, 24.460566]}, "properties": {"category": "指示牌", "color": "#0d537f"}}, {"type": "Feature", "geometry": {"type": "Point", "coordinates": [118.08796, 24.460562]}, "properties": {"category": "指示牌", "color": "#0d537f"}}, {"type": "Feature", "geometry": {"type": "Point", "coordinates": [118.090018, 24.460611]}, "properties": {"category": "宣传栏", "color": "#62bc56"}}, {"type": "Feature", "geometry": {"type": "Point", "coordinates": [118.086784, 24.460512]}, "properties": {"category": "宣传栏", "color": "#62bc56"}}, {"type": "Feature", "geometry": {"type": "Point", "coordinates": [118.086875, 24.460515]}, "properties": {"category": "指示牌", "color": "#0d537f"}}, {"type": "Feature", "geometry": {"type": "Point", "coordinates": [118.08699, 24.460513]}, "properties": {"category": "垃圾桶", "color": "#01774b"}}, {"type": "Feature", "geometry": {"type": "Point", "coordinates": [118.087127, 24.460494]}, "properties": {"category": "路灯", "color": "#e02020"}}, {"type": "Feature", "geometry": {"type": "Point", "coordinates": [118.087241, 24.460496]}, "properties": {"category": "路灯", "color": "#e02020"}}, {"type": "Feature", "geometry": {"type": "Point", "coordinates": [118.087359, 24.460501]}, "properties": {"category": "路灯", "color": "#e02020"}}, {"type": "Feature", "geometry": {"type": "Point", "coordinates": [118.086203, 24.460436]}, "properties": {"category": "路灯", "color": "#e02020"}}, {"type": "Feature", "geometry": {"type": "Point", "coordinates": [118.087593, 24.460475]}, "properties": {"category": "路灯", "color": "#e02020"}}, {"type": "Feature", "geometry": {"type": "Point", "coordinates": [118.088822, 24.460509]}, "properties": {"category": "路灯", "color": "#e02020"}}, {"type": "Feature", "geometry": {"type": "Point", "coordinates": [118.089402, 24.460527]}, "properties": {"category": "路灯", "color": "#e02020"}}, {"type": "Feature", "geometry": {"type": "Point", "coordinates": [118.086739, 24.460424]}, "properties": {"category": "灭火器", "color": "#e41961"}}, {"type": "Feature", "geometry": {"type": "Point", "coordinates": [118.08689, 24.460426]}, "properties": {"category": "灭火器", "color": "#e41961"}}, {"type": "Feature", "geometry": {"type": "Point", "coordinates": [118.087854, 24.460453]}, "properties": {"category": "路灯", "color": "#e02020"}}, {"type": "Feature", "geometry": {"type": "Point", "coordinates": [118.089146, 24.460489]}, "properties": {"category": "路灯", "color": "#e02020"}}, {"type": "Feature", "geometry": {"type": "Point", "coordinates": [118.089067, 24.460483]}, "properties": {"category": "宣传栏", "color": "#62bc56"}}, {"type": "Feature", "geometry": {"type": "Point", "coordinates": [118.089318, 24.460491]}, "properties": {"category": "宣传栏", "color": "#62bc56"}}, {"type": "Feature", "geometry": {"type": "Point", "coordinates": [118.089856, 24.46048]}, "properties": {"category": "路灯", "color": "#e02020"}}, {"type": "Feature", "geometry": {"type": "Point", "coordinates": [118.086166, 24.460377]}, "properties": {"category": "宣传栏", "color": "#62bc56"}}, {"type": "Feature", "geometry": {"type": "Point", "coordinates": [118.08822, 24.46042]}, "properties": {"category": "晾衣架", "color": "#e87110"}}, {"type": "Feature", "geometry": {"type": "Point", "coordinates": [118.089923, 24.460446]}, "properties": {"category": "指示牌", "color": "#0d537f"}}, {"type": "Feature", "geometry": {"type": "Point", "coordinates": [118.086096, 24.460324]}, "properties": {"category": "垃圾桶", "color": "#01774b"}}, {"type": "Feature", "geometry": {"type": "Point", "coordinates": [118.0863, 24.460313]}, "properties": {"category": "指示牌", "color": "#0d537f"}}, {"type": "Feature", "geometry": {"type": "Point", "coordinates": [118.089252, 24.460369]}, "properties": {"category": "座椅", "color": "#f4ef6b"}}, {"type": "Feature", "geometry": {"type": "Point", "coordinates": [118.089466, 24.46038]}, "properties": {"category": "座椅", "color": "#f4ef6b"}}, {"type": "Feature", "geometry": {"type": "Point", "coordinates": [118.089581, 24.460369]}, "properties": {"category": "路灯", "color": "#e02020"}}, {"type": "Feature", "geometry": {"type": "Point", "coordinates": [118.086036, 24.460238]}, "properties": {"category": "路灯", "color": "#e02020"}}, {"type": "Feature", "geometry": {"type": "Point", "coordinates": [118.085957, 24.460154]}, "properties": {"category": "指示牌", "color": "#0d537f"}}, {"type": "Feature", "geometry": {"type": "Point", "coordinates": [118.085913, 24.460087]}, "properties": {"category": "路灯", "color": "#e02020"}}, {"type": "Feature", "geometry": {"type": "Point", "coordinates": [118.088878, 24.460141]}, "properties": {"category": "指示牌", "color": "#0d537f"}}, {"type": "Feature", "geometry": {"type": "Point", "coordinates": [118.089043, 24.460038]}, "properties": {"category": "灭火器", "color": "#e41961"}}, {"type": "Feature", "geometry": {"type": "Point", "coordinates": [118.086036, 24.459978]}, "properties": {"category": "指示牌", "color": "#0d537f"}}, {"type": "Feature", "geometry": {"type": "Point", "coordinates": [118.089488, 24.460077]}, "properties": {"category": "座椅", "color": "#f4ef6b"}}, {"type": "Feature", "geometry": {"type": "Point", "coordinates": [118.089654, 24.460054]}, "properties": {"category": "宣传栏", "color": "#62bc56"}}, {"type": "Feature", "geometry": {"type": "Point", "coordinates": [118.08538, 24.459916]}, "properties": {"category": "路灯", "color": "#e02020"}}, {"type": "Feature", "geometry": {"type": "Point", "coordinates": [118.085813, 24.459928]}, "properties": {"category": "指示牌", "color": "#0d537f"}}, {"type": "Feature", "geometry": {"type": "Point", "coordinates": [118.088786, 24.460014]}, "properties": {"category": "宣传栏", "color": "#62bc56"}}, {"type": "Feature", "geometry": {"type": "Point", "coordinates": [118.088861, 24.460017]}, "properties": {"category": "指示牌", "color": "#0d537f"}}, {"type": "Feature", "geometry": {"type": "Point", "coordinates": [118.085471, 24.45989]}, "properties": {"category": "指示牌", "color": "#0d537f"}}, {"type": "Feature", "geometry": {"type": "Point", "coordinates": [118.088994, 24.459961]}, "properties": {"category": "垃圾桶", "color": "#01774b"}}, {"type": "Feature", "geometry": {"type": "Point", "coordinates": [118.089176, 24.459964]}, "properties": {"category": "指示牌", "color": "#0d537f"}}, {"type": "Feature", "geometry": {"type": "Point", "coordinates": [118.085745, 24.459845]}, "properties": {"category": "路灯", "color": "#e02020"}}, {"type": "Feature", "geometry": {"type": "Point", "coordinates": [118.088755, 24.459901]}, "properties": {"category": "路灯", "color": "#e02020"}}, {"type": "Feature", "geometry": {"type": "Point", "coordinates": [118.088549, 24.45988]}, "properties": {"category": "路灯", "color": "#e02020"}}, {"type": "Feature", "geometry": {"type": "Point", "coordinates": [118.088674, 24.459883]}, "properties": {"category": "指示牌", "color": "#0d537f"}}, {"type": "Feature", "geometry": {"type": "Point", "coordinates": [118.085326, 24.459766]}, "properties": {"category": "路灯", "color": "#e02020"}}, {"type": "Feature", "geometry": {"type": "Point", "coordinates": [118.088356, 24.459844]}, "properties": {"category": "路灯", "color": "#e02020"}}, {"type": "Feature", "geometry": {"type": "Point", "coordinates": [118.089528, 24.459892]}, "properties": {"category": "宣传栏", "color": "#62bc56"}}, {"type": "Feature", "geometry": {"type": "Point", "coordinates": [118.089009, 24.459864]}, "properties": {"category": "座椅", "color": "#f4ef6b"}}, {"type": "Feature", "geometry": {"type": "Point", "coordinates": [118.087358, 24.459795]}, "properties": {"category": "座椅", "color": "#f4ef6b"}}, {"type": "Feature", "geometry": {"type": "Point", "coordinates": [118.087449, 24.459794]}, "properties": {"category": "路灯", "color": "#e02020"}}, {"type": "Feature", "geometry": {"type": "Point", "coordinates": [118.088277, 24.459825]}, "properties": {"category": "垃圾桶", "color": "#01774b"}}, {"type": "Feature", "geometry": {"type": "Point", "coordinates": [118.088191, 24.459811]}, "properties": {"category": "垃圾桶", "color": "#01774b"}}, {"type": "Feature", "geometry": {"type": "Point", "coordinates": [118.087198, 24.459766]}, "properties": {"category": "座椅", "color": "#f4ef6b"}}, {"type": "Feature", "geometry": {"type": "Point", "coordinates": [118.08797, 24.459774]}, "properties": {"category": "路灯", "color": "#e02020"}}, {"type": "Feature", "geometry": {"type": "Point", "coordinates": [118.089147, 24.459814]}, "properties": {"category": "路灯", "color": "#e02020"}}, {"type": "Feature", "geometry": {"type": "Point", "coordinates": [118.085678, 24.459703]}, "properties": {"category": "路灯", "color": "#e02020"}}, {"type": "Feature", "geometry": {"type": "Point", "coordinates": [118.087793, 24.459754]}, "properties": {"category": "座椅", "color": "#f4ef6b"}}, {"type": "Feature", "geometry": {"type": "Point", "coordinates": [118.087008, 24.459726]}, "properties": {"category": "座椅", "color": "#f4ef6b"}}, {"type": "Feature", "geometry": {"type": "Point", "coordinates": [118.085296, 24.459669]}, "properties": {"category": "指示牌", "color": "#0d537f"}}, {"type": "Feature", "geometry": {"type": "Point", "coordinates": [118.087701, 24.459739]}, "properties": {"category": "座椅", "color": "#f4ef6b"}}, {"type": "Feature", "geometry": {"type": "Point", "coordinates": [118.08739, 24.459708]}, "properties": {"category": "宣传栏", "color": "#62bc56"}}, {"type": "Feature", "geometry": {"type": "Point", "coordinates": [118.087464, 24.459708]}, "properties": {"category": "宣传栏", "color": "#62bc56"}}, {"type": "Feature", "geometry": {"type": "Point", "coordinates": [118.08761, 24.459716]}, "properties": {"category": "垃圾桶", "color": "#01774b"}}, {"type": "Feature", "geometry": {"type": "Point", "coordinates": [118.08956, 24.459768]}, "properties": {"category": "座椅", "color": "#f4ef6b"}}, {"type": "Feature", "geometry": {"type": "Point", "coordinates": [118.087167, 24.459686]}, "properties": {"category": "路灯", "color": "#e02020"}}, {"type": "Feature", "geometry": {"type": "Point", "coordinates": [118.087315, 24.459698]}, "properties": {"category": "垃圾桶", "color": "#01774b"}}, {"type": "Feature", "geometry": {"type": "Point", "coordinates": [118.085832, 24.459645]}, "properties": {"category": "指示牌", "color": "#0d537f"}}, {"type": "Feature", "geometry": {"type": "Point", "coordinates": [118.088995, 24.459722]}, "properties": {"category": "路灯", "color": "#e02020"}}, {"type": "Feature", "geometry": {"type": "Point", "coordinates": [118.086998, 24.459639]}, "properties": {"category": "路灯", "color": "#e02020"}}, {"type": "Feature", "geometry": {"type": "Point", "coordinates": [118.089468, 24.459711]}, "properties": {"category": "座椅", "color": "#f4ef6b"}}, {"type": "Feature", "geometry": {"type": "Point", "coordinates": [118.087594, 24.45963]}, "properties": {"category": "路灯", "color": "#e02020"}}, {"type": "Feature", "geometry": {"type": "Point", "coordinates": [118.087396, 24.459617]}, "properties": {"category": "路灯", "color": "#e02020"}}, {"type": "Feature", "geometry": {"type": "Point", "coordinates": [118.086922, 24.459595]}, "properties": {"category": "指示牌", "color": "#0d537f"}}, {"type": "Feature", "geometry": {"type": "Point", "coordinates": [118.085749, 24.459541]}, "properties": {"category": "路灯", "color": "#e02020"}}, {"type": "Feature", "geometry": {"type": "Point", "coordinates": [118.086847, 24.459571]}, "properties": {"category": "路灯", "color": "#e02020"}}, {"type": "Feature", "geometry": {"type": "Point", "coordinates": [118.085861, 24.459485]}, "properties": {"category": "指示牌", "color": "#0d537f"}}, {"type": "Feature", "geometry": {"type": "Point", "coordinates": [118.086555, 24.459499]}, "properties": {"category": "指示牌", "color": "#0d537f"}}, {"type": "Feature", "geometry": {"type": "Point", "coordinates": [118.08671, 24.459487]}, "properties": {"category": "路灯", "color": "#e02020"}}, {"type": "Feature", "geometry": {"type": "Point", "coordinates": [118.089292, 24.459566]}, "properties": {"category": "垃圾桶", "color": "#01774b"}}, {"type": "Feature", "geometry": {"type": "Point", "coordinates": [118.087783, 24.459492]}, "properties": {"category": "路灯", "color": "#e02020"}}, {"type": "Feature", "geometry": {"type": "Point", "coordinates": [118.087863, 24.459476]}, "properties": {"category": "指示牌", "color": "#0d537f"}}, {"type": "Feature", "geometry": {"type": "Point", "coordinates": [118.086342, 24.459411]}, "properties": {"category": "指示牌", "color": "#0d537f"}}, {"type": "Feature", "geometry": {"type": "Point", "coordinates": [118.086488, 24.459415]}, "properties": {"category": "指示牌", "color": "#0d537f"}}, {"type": "Feature", "geometry": {"type": "Point", "coordinates": [118.089214, 24.459496]}, "properties": {"category": "垃圾桶", "color": "#01774b"}}, {"type": "Feature", "geometry": {"type": "Point", "coordinates": [118.085759, 24.459371]}, "properties": {"category": "路灯", "color": "#e02020"}}, {"type": "Feature", "geometry": {"type": "Point", "coordinates": [118.088275, 24.459405]}, "properties": {"category": "路灯", "color": "#e02020"}}, {"type": "Feature", "geometry": {"type": "Point", "coordinates": [118.086778, 24.459355]}, "properties": {"category": "灭火器", "color": "#e41961"}}, {"type": "Feature", "geometry": {"type": "Point", "coordinates": [118.085891, 24.459307]}, "properties": {"category": "指示牌", "color": "#0d537f"}}, {"type": "Feature", "geometry": {"type": "Point", "coordinates": [118.088093, 24.45937]}, "properties": {"category": "路灯", "color": "#e02020"}}, {"type": "Feature", "geometry": {"type": "Point", "coordinates": [118.086334, 24.459282]}, "properties": {"category": "路灯", "color": "#e02020"}}, {"type": "Feature", "geometry": {"type": "Point", "coordinates": [118.087891, 24.459325]}, "properties": {"category": "路灯", "color": "#e02020"}}, {"type": "Feature", "geometry": {"type": "Point", "coordinates": [118.08599, 24.459252]}, "properties": {"category": "灭火器", "color": "#e41961"}}, {"type": "Feature", "geometry": {"type": "Point", "coordinates": [118.088388, 24.45929]}, "properties": {"category": "路灯", "color": "#e02020"}}, {"type": "Feature", "geometry": {"type": "Point", "coordinates": [118.085792, 24.459201]}, "properties": {"category": "路灯", "color": "#e02020"}}, {"type": "Feature", "geometry": {"type": "Point", "coordinates": [118.088278, 24.459219]}, "properties": {"category": "路灯", "color": "#e02020"}}, {"type": "Feature", "geometry": {"type": "Point", "coordinates": [118.085808, 24.45912]}, "properties": {"category": "灭火器", "color": "#e41961"}}, {"type": "Feature", "geometry": {"type": "Point", "coordinates": [118.087922, 24.459178]}, "properties": {"category": "路灯", "color": "#e02020"}}, {"type": "Feature", "geometry": {"type": "Point", "coordinates": [118.085816, 24.45903]}, "properties": {"category": "路灯", "color": "#e02020"}}, {"type": "Feature", "geometry": {"type": "Point", "coordinates": [118.088354, 24.459088]}, "properties": {"category": "路灯", "color": "#e02020"}}, {"type": "Feature", "geometry": {"type": "Point", "coordinates": [118.087925, 24.459024]}, "properties": {"category": "路灯", "color": "#e02020"}}, {"type": "Feature", "geometry": {"type": "Point", "coordinates": [118.084964, 24.458946]}, "properties": {"category": "宣传栏", "color": "#62bc56"}}, {"type": "Feature", "geometry": {"type": "Point", "coordinates": [118.085831, 24.45895]}, "properties": {"category": "指示牌", "color": "#0d537f"}}, {"type": "Feature", "geometry": {"type": "Point", "coordinates": [118.085939, 24.458954]}, "properties": {"category": "路灯", "color": "#e02020"}}, {"type": "Feature", "geometry": {"type": "Point", "coordinates": [118.085817, 24.458867]}, "properties": {"category": "路灯", "color": "#e02020"}}, {"type": "Feature", "geometry": {"type": "Point", "coordinates": [118.085779, 24.458783]}, "properties": {"category": "指示牌", "color": "#0d537f"}}, {"type": "Feature", "geometry": {"type": "Point", "coordinates": [118.087857, 24.458791]}, "properties": {"category": "路灯", "color": "#e02020"}}, {"type": "Feature", "geometry": {"type": "Point", "coordinates": [118.087789, 24.458692]}, "properties": {"category": "路灯", "color": "#e02020"}}, {"type": "Feature", "geometry": {"type": "Point", "coordinates": [118.087705, 24.458595]}, "properties": {"category": "路灯", "color": "#e02020"}}]}