{"type": "FeatureCollection", "features": [{"type": "Feature", "geometry": {"type": "Point", "coordinates": [118.093213, 24.463067]}, "properties": {"category": "垃圾桶", "color": "#01774b"}}, {"type": "Feature", "geometry": {"type": "Point", "coordinates": [118.093528, 24.463049]}, "properties": {"category": "垃圾桶", "color": "#01774b"}}, {"type": "Feature", "geometry": {"type": "Point", "coordinates": [118.094035, 24.46286]}, "properties": {"category": "垃圾桶", "color": "#01774b"}}, {"type": "Feature", "geometry": {"type": "Point", "coordinates": [118.094207, 24.462798]}, "properties": {"category": "垃圾桶", "color": "#01774b"}}, {"type": "Feature", "geometry": {"type": "Point", "coordinates": [118.094576, 24.462776]}, "properties": {"category": "路灯", "color": "#e02020"}}, {"type": "Feature", "geometry": {"type": "Point", "coordinates": [118.094369, 24.4627]}, "properties": {"category": "路灯", "color": "#e02020"}}, {"type": "Feature", "geometry": {"type": "Point", "coordinates": [118.09419, 24.462666]}, "properties": {"category": "路灯", "color": "#e02020"}}, {"type": "Feature", "geometry": {"type": "Point", "coordinates": [118.095583, 24.462371]}, "properties": {"category": "路灯", "color": "#e02020"}}, {"type": "Feature", "geometry": {"type": "Point", "coordinates": [118.094981, 24.462259]}, "properties": {"category": "路灯", "color": "#e02020"}}, {"type": "Feature", "geometry": {"type": "Point", "coordinates": [118.093359, 24.462124]}, "properties": {"category": "路灯", "color": "#e02020"}}, {"type": "Feature", "geometry": {"type": "Point", "coordinates": [118.094225, 24.462116]}, "properties": {"category": "路灯", "color": "#e02020"}}, {"type": "Feature", "geometry": {"type": "Point", "coordinates": [118.095012, 24.462141]}, "properties": {"category": "垃圾桶", "color": "#01774b"}}, {"type": "Feature", "geometry": {"type": "Point", "coordinates": [118.093544, 24.462009]}, "properties": {"category": "路灯", "color": "#e02020"}}, {"type": "Feature", "geometry": {"type": "Point", "coordinates": [118.093385, 24.461988]}, "properties": {"category": "反光镜", "color": "#483e52"}}, {"type": "Feature", "geometry": {"type": "Point", "coordinates": [118.093331, 24.461877]}, "properties": {"category": "垃圾桶", "color": "#01774b"}}, {"type": "Feature", "geometry": {"type": "Point", "coordinates": [118.093753, 24.461822]}, "properties": {"category": "灭火器", "color": "#e41961"}}, {"type": "Feature", "geometry": {"type": "Point", "coordinates": [118.095082, 24.46184]}, "properties": {"category": "晾衣架", "color": "#e87110"}}, {"type": "Feature", "geometry": {"type": "Point", "coordinates": [118.094983, 24.461797]}, "properties": {"category": "路灯", "color": "#e02020"}}, {"type": "Feature", "geometry": {"type": "Point", "coordinates": [118.093828, 24.461731]}, "properties": {"category": "路灯", "color": "#e02020"}}, {"type": "Feature", "geometry": {"type": "Point", "coordinates": [118.093652, 24.461701]}, "properties": {"category": "垃圾桶", "color": "#01774b"}}, {"type": "Feature", "geometry": {"type": "Point", "coordinates": [118.095052, 24.461674]}, "properties": {"category": "宣传栏", "color": "#62bc56"}}, {"type": "Feature", "geometry": {"type": "Point", "coordinates": [118.093601, 24.46126]}, "properties": {"category": "晾衣架", "color": "#e87110"}}, {"type": "Feature", "geometry": {"type": "Point", "coordinates": [118.093892, 24.461262]}, "properties": {"category": "路灯", "color": "#e02020"}}, {"type": "Feature", "geometry": {"type": "Point", "coordinates": [118.093783, 24.461229]}, "properties": {"category": "路灯", "color": "#e02020"}}, {"type": "Feature", "geometry": {"type": "Point", "coordinates": [118.093631, 24.461114]}, "properties": {"category": "宣传栏", "color": "#62bc56"}}, {"type": "Feature", "geometry": {"type": "Point", "coordinates": [118.093876, 24.461093]}, "properties": {"category": "垃圾桶", "color": "#01774b"}}, {"type": "Feature", "geometry": {"type": "Point", "coordinates": [118.094306, 24.460465]}, "properties": {"category": "晾衣架", "color": "#e87110"}}, {"type": "Feature", "geometry": {"type": "Point", "coordinates": [118.094864, 24.460482]}, "properties": {"category": "灭火器", "color": "#e41961"}}, {"type": "Feature", "geometry": {"type": "Point", "coordinates": [118.094595, 24.460444]}, "properties": {"category": "晾衣架", "color": "#e87110"}}, {"type": "Feature", "geometry": {"type": "Point", "coordinates": [118.094197, 24.460403]}, "properties": {"category": "宣传栏", "color": "#62bc56"}}, {"type": "Feature", "geometry": {"type": "Point", "coordinates": [118.094892, 24.460385]}, "properties": {"category": "垃圾桶", "color": "#01774b"}}, {"type": "Feature", "geometry": {"type": "Point", "coordinates": [118.09251, 24.460082]}, "properties": {"category": "指示牌", "color": "#0d537f"}}, {"type": "Feature", "geometry": {"type": "Point", "coordinates": [118.095192, 24.46009]}, "properties": {"category": "反光镜", "color": "#483e52"}}, {"type": "Feature", "geometry": {"type": "Point", "coordinates": [118.09246, 24.45999]}, "properties": {"category": "路灯", "color": "#e02020"}}, {"type": "Feature", "geometry": {"type": "Point", "coordinates": [118.094252, 24.460013]}, "properties": {"category": "宣传栏", "color": "#62bc56"}}, {"type": "Feature", "geometry": {"type": "Point", "coordinates": [118.092579, 24.459846]}, "properties": {"category": "路灯", "color": "#e02020"}}, {"type": "Feature", "geometry": {"type": "Point", "coordinates": [118.09426, 24.459824]}, "properties": {"category": "垃圾桶", "color": "#01774b"}}, {"type": "Feature", "geometry": {"type": "Point", "coordinates": [118.094787, 24.459774]}, "properties": {"category": "路灯", "color": "#e02020"}}, {"type": "Feature", "geometry": {"type": "Point", "coordinates": [118.095888, 24.459805]}, "properties": {"category": "路灯", "color": "#e02020"}}, {"type": "Feature", "geometry": {"type": "Point", "coordinates": [118.094153, 24.459736]}, "properties": {"category": "灭火器", "color": "#e41961"}}, {"type": "Feature", "geometry": {"type": "Point", "coordinates": [118.094955, 24.459749]}, "properties": {"category": "路灯", "color": "#e02020"}}, {"type": "Feature", "geometry": {"type": "Point", "coordinates": [118.096147, 24.459754]}, "properties": {"category": "反光镜", "color": "#483e52"}}, {"type": "Feature", "geometry": {"type": "Point", "coordinates": [118.092331, 24.459563]}, "properties": {"category": "指示牌", "color": "#0d537f"}}, {"type": "Feature", "geometry": {"type": "Point", "coordinates": [118.093321, 24.45957]}, "properties": {"category": "垃圾桶", "color": "#01774b"}}, {"type": "Feature", "geometry": {"type": "Point", "coordinates": [118.094023, 24.45959]}, "properties": {"category": "垃圾桶", "color": "#01774b"}}, {"type": "Feature", "geometry": {"type": "Point", "coordinates": [118.093402, 24.459542]}, "properties": {"category": "指示牌", "color": "#0d537f"}}, {"type": "Feature", "geometry": {"type": "Point", "coordinates": [118.094528, 24.459564]}, "properties": {"category": "晾衣架", "color": "#e87110"}}, {"type": "Feature", "geometry": {"type": "Point", "coordinates": [118.092291, 24.459473]}, "properties": {"category": "路灯", "color": "#e02020"}}, {"type": "Feature", "geometry": {"type": "Point", "coordinates": [118.093254, 24.459497]}, "properties": {"category": "路灯", "color": "#e02020"}}, {"type": "Feature", "geometry": {"type": "Point", "coordinates": [118.09629, 24.459589]}, "properties": {"category": "灭火器", "color": "#e41961"}}, {"type": "Feature", "geometry": {"type": "Point", "coordinates": [118.092397, 24.459469]}, "properties": {"category": "指示牌", "color": "#0d537f"}}, {"type": "Feature", "geometry": {"type": "Point", "coordinates": [118.096147, 24.459567]}, "properties": {"category": "路灯", "color": "#e02020"}}, {"type": "Feature", "geometry": {"type": "Point", "coordinates": [118.092972, 24.459476]}, "properties": {"category": "路灯", "color": "#e02020"}}, {"type": "Feature", "geometry": {"type": "Point", "coordinates": [118.092597, 24.459448]}, "properties": {"category": "指示牌", "color": "#0d537f"}}, {"type": "Feature", "geometry": {"type": "Point", "coordinates": [118.09271, 24.459454]}, "properties": {"category": "路灯", "color": "#e02020"}}, {"type": "Feature", "geometry": {"type": "Point", "coordinates": [118.096428, 24.459557]}, "properties": {"category": "宣传栏", "color": "#62bc56"}}, {"type": "Feature", "geometry": {"type": "Point", "coordinates": [118.093476, 24.459462]}, "properties": {"category": "路灯", "color": "#e02020"}}, {"type": "Feature", "geometry": {"type": "Point", "coordinates": [118.096049, 24.459537]}, "properties": {"category": "反光镜", "color": "#483e52"}}, {"type": "Feature", "geometry": {"type": "Point", "coordinates": [118.092464, 24.459366]}, "properties": {"category": "路灯", "color": "#e02020"}}, {"type": "Feature", "geometry": {"type": "Point", "coordinates": [118.094124, 24.459412]}, "properties": {"category": "灭火器", "color": "#e41961"}}, {"type": "Feature", "geometry": {"type": "Point", "coordinates": [118.093965, 24.45938]}, "properties": {"category": "路灯", "color": "#e02020"}}, {"type": "Feature", "geometry": {"type": "Point", "coordinates": [118.092392, 24.459322]}, "properties": {"category": "指示牌", "color": "#0d537f"}}, {"type": "Feature", "geometry": {"type": "Point", "coordinates": [118.094757, 24.459371]}, "properties": {"category": "垃圾桶", "color": "#01774b"}}, {"type": "Feature", "geometry": {"type": "Point", "coordinates": [118.094854, 24.459376]}, "properties": {"category": "指示牌", "color": "#0d537f"}}, {"type": "Feature", "geometry": {"type": "Point", "coordinates": [118.093619, 24.459341]}, "properties": {"category": "宣传栏", "color": "#62bc56"}}, {"type": "Feature", "geometry": {"type": "Point", "coordinates": [118.094291, 24.459344]}, "properties": {"category": "路灯", "color": "#e02020"}}, {"type": "Feature", "geometry": {"type": "Point", "coordinates": [118.094109, 24.459332]}, "properties": {"category": "反光镜", "color": "#483e52"}}, {"type": "Feature", "geometry": {"type": "Point", "coordinates": [118.094458, 24.459341]}, "properties": {"category": "路灯", "color": "#e02020"}}, {"type": "Feature", "geometry": {"type": "Point", "coordinates": [118.09369, 24.459294]}, "properties": {"category": "路灯", "color": "#e02020"}}, {"type": "Feature", "geometry": {"type": "Point", "coordinates": [118.094589, 24.459339]}, "properties": {"category": "宣传栏", "color": "#62bc56"}}, {"type": "Feature", "geometry": {"type": "Point", "coordinates": [118.091748, 24.459237]}, "properties": {"category": "路灯", "color": "#e02020"}}, {"type": "Feature", "geometry": {"type": "Point", "coordinates": [118.093435, 24.459292]}, "properties": {"category": "路灯", "color": "#e02020"}}, {"type": "Feature", "geometry": {"type": "Point", "coordinates": [118.09553, 24.459321]}, "properties": {"category": "灭火器", "color": "#e41961"}}, {"type": "Feature", "geometry": {"type": "Point", "coordinates": [118.093306, 24.459214]}, "properties": {"category": "晾衣架", "color": "#e87110"}}, {"type": "Feature", "geometry": {"type": "Point", "coordinates": [118.094087, 24.459236]}, "properties": {"category": "路灯", "color": "#e02020"}}, {"type": "Feature", "geometry": {"type": "Point", "coordinates": [118.095086, 24.459242]}, "properties": {"category": "垃圾桶", "color": "#01774b"}}, {"type": "Feature", "geometry": {"type": "Point", "coordinates": [118.094985, 24.459233]}, "properties": {"category": "垃圾桶", "color": "#01774b"}}, {"type": "Feature", "geometry": {"type": "Point", "coordinates": [118.095332, 24.459219]}, "properties": {"category": "灭火器", "color": "#e41961"}}, {"type": "Feature", "geometry": {"type": "Point", "coordinates": [118.096334, 24.459241]}, "properties": {"category": "垃圾桶", "color": "#01774b"}}, {"type": "Feature", "geometry": {"type": "Point", "coordinates": [118.093429, 24.459118]}, "properties": {"category": "路灯", "color": "#e02020"}}, {"type": "Feature", "geometry": {"type": "Point", "coordinates": [118.093756, 24.459135]}, "properties": {"category": "路灯", "color": "#e02020"}}, {"type": "Feature", "geometry": {"type": "Point", "coordinates": [118.094116, 24.45911]}, "properties": {"category": "路灯", "color": "#e02020"}}, {"type": "Feature", "geometry": {"type": "Point", "coordinates": [118.09342, 24.458987]}, "properties": {"category": "指示牌", "color": "#0d537f"}}, {"type": "Feature", "geometry": {"type": "Point", "coordinates": [118.094252, 24.459011]}, "properties": {"category": "宣传栏", "color": "#62bc56"}}, {"type": "Feature", "geometry": {"type": "Point", "coordinates": [118.093826, 24.458967]}, "properties": {"category": "路灯", "color": "#e02020"}}, {"type": "Feature", "geometry": {"type": "Point", "coordinates": [118.096302, 24.459008]}, "properties": {"category": "指示牌", "color": "#0d537f"}}, {"type": "Feature", "geometry": {"type": "Point", "coordinates": [118.093436, 24.458918]}, "properties": {"category": "路灯", "color": "#e02020"}}, {"type": "Feature", "geometry": {"type": "Point", "coordinates": [118.094034, 24.458922]}, "properties": {"category": "晾衣架", "color": "#e87110"}}, {"type": "Feature", "geometry": {"type": "Point", "coordinates": [118.093956, 24.458916]}, "properties": {"category": "宣传栏", "color": "#62bc56"}}, {"type": "Feature", "geometry": {"type": "Point", "coordinates": [118.094187, 24.458911]}, "properties": {"category": "路灯", "color": "#e02020"}}, {"type": "Feature", "geometry": {"type": "Point", "coordinates": [118.093391, 24.458749]}, "properties": {"category": "路灯", "color": "#e02020"}}, {"type": "Feature", "geometry": {"type": "Point", "coordinates": [118.093895, 24.458762]}, "properties": {"category": "晾衣架", "color": "#e87110"}}, {"type": "Feature", "geometry": {"type": "Point", "coordinates": [118.094897, 24.458745]}, "properties": {"category": "路灯", "color": "#e02020"}}, {"type": "Feature", "geometry": {"type": "Point", "coordinates": [118.095058, 24.458751]}, "properties": {"category": "指示牌", "color": "#0d537f"}}, {"type": "Feature", "geometry": {"type": "Point", "coordinates": [118.090999, 24.458641]}, "properties": {"category": "座椅", "color": "#f4ef6b"}}, {"type": "Feature", "geometry": {"type": "Point", "coordinates": [118.093936, 24.458688]}, "properties": {"category": "路灯", "color": "#e02020"}}, {"type": "Feature", "geometry": {"type": "Point", "coordinates": [118.090981, 24.458539]}, "properties": {"category": "路灯", "color": "#e02020"}}, {"type": "Feature", "geometry": {"type": "Point", "coordinates": [118.094011, 24.458558]}, "properties": {"category": "路灯", "color": "#e02020"}}, {"type": "Feature", "geometry": {"type": "Point", "coordinates": [118.095195, 24.458593]}, "properties": {"category": "路灯", "color": "#e02020"}}, {"type": "Feature", "geometry": {"type": "Point", "coordinates": [118.091109, 24.458473]}, "properties": {"category": "指示牌", "color": "#0d537f"}}, {"type": "Feature", "geometry": {"type": "Point", "coordinates": [118.092773, 24.458485]}, "properties": {"category": "路灯", "color": "#e02020"}}, {"type": "Feature", "geometry": {"type": "Point", "coordinates": [118.092426, 24.458395]}, "properties": {"category": "路灯", "color": "#e02020"}}, {"type": "Feature", "geometry": {"type": "Point", "coordinates": [118.093063, 24.458493]}, "properties": {"category": "路灯", "color": "#e02020"}}, {"type": "Feature", "geometry": {"type": "Point", "coordinates": [118.093179, 24.458496]}, "properties": {"category": "晾衣架", "color": "#e87110"}}, {"type": "Feature", "geometry": {"type": "Point", "coordinates": [118.093285, 24.4585]}, "properties": {"category": "路灯", "color": "#e02020"}}, {"type": "Feature", "geometry": {"type": "Point", "coordinates": [118.093064, 24.458376]}, "properties": {"category": "晾衣架", "color": "#e87110"}}, {"type": "Feature", "geometry": {"type": "Point", "coordinates": [118.093882, 24.458398]}, "properties": {"category": "路灯", "color": "#e02020"}}, {"type": "Feature", "geometry": {"type": "Point", "coordinates": [118.093392, 24.458355]}, "properties": {"category": "路灯", "color": "#e02020"}}, {"type": "Feature", "geometry": {"type": "Point", "coordinates": [118.091176, 24.458255]}, "properties": {"category": "垃圾桶", "color": "#01774b"}}, {"type": "Feature", "geometry": {"type": "Point", "coordinates": [118.09401, 24.458306]}, "properties": {"category": "路灯", "color": "#e02020"}}, {"type": "Feature", "geometry": {"type": "Point", "coordinates": [118.091114, 24.458134]}, "properties": {"category": "路灯", "color": "#e02020"}}, {"type": "Feature", "geometry": {"type": "Point", "coordinates": [118.092425, 24.45817]}, "properties": {"category": "路灯", "color": "#e02020"}}, {"type": "Feature", "geometry": {"type": "Point", "coordinates": [118.093261, 24.458196]}, "properties": {"category": "指示牌", "color": "#0d537f"}}, {"type": "Feature", "geometry": {"type": "Point", "coordinates": [118.094009, 24.458148]}, "properties": {"category": "路灯", "color": "#e02020"}}, {"type": "Feature", "geometry": {"type": "Point", "coordinates": [118.091863, 24.458079]}, "properties": {"category": "垃圾桶", "color": "#01774b"}}, {"type": "Feature", "geometry": {"type": "Point", "coordinates": [118.092004, 24.458063]}, "properties": {"category": "灭火器", "color": "#e41961"}}, {"type": "Feature", "geometry": {"type": "Point", "coordinates": [118.09337, 24.458103]}, "properties": {"category": "指示牌", "color": "#0d537f"}}, {"type": "Feature", "geometry": {"type": "Point", "coordinates": [118.094256, 24.458121]}, "properties": {"category": "灭火器", "color": "#e41961"}}, {"type": "Feature", "geometry": {"type": "Point", "coordinates": [118.094564, 24.45813]}, "properties": {"category": "垃圾桶", "color": "#01774b"}}, {"type": "Feature", "geometry": {"type": "Point", "coordinates": [118.091248, 24.458032]}, "properties": {"category": "指示牌", "color": "#0d537f"}}, {"type": "Feature", "geometry": {"type": "Point", "coordinates": [118.094364, 24.458116]}, "properties": {"category": "垃圾桶", "color": "#01774b"}}, {"type": "Feature", "geometry": {"type": "Point", "coordinates": [118.094461, 24.458119]}, "properties": {"category": "垃圾桶", "color": "#01774b"}}, {"type": "Feature", "geometry": {"type": "Point", "coordinates": [118.095123, 24.458117]}, "properties": {"category": "宣传栏", "color": "#62bc56"}}, {"type": "Feature", "geometry": {"type": "Point", "coordinates": [118.091599, 24.458012]}, "properties": {"category": "指示牌", "color": "#0d537f"}}, {"type": "Feature", "geometry": {"type": "Point", "coordinates": [118.093361, 24.458027]}, "properties": {"category": "路灯", "color": "#e02020"}}, {"type": "Feature", "geometry": {"type": "Point", "coordinates": [118.091751, 24.457965]}, "properties": {"category": "路灯", "color": "#e02020"}}, {"type": "Feature", "geometry": {"type": "Point", "coordinates": [118.091906, 24.457963]}, "properties": {"category": "路灯", "color": "#e02020"}}, {"type": "Feature", "geometry": {"type": "Point", "coordinates": [118.092169, 24.457961]}, "properties": {"category": "指示牌", "color": "#0d537f"}}, {"type": "Feature", "geometry": {"type": "Point", "coordinates": [118.09207, 24.457951]}, "properties": {"category": "宣传栏", "color": "#62bc56"}}, {"type": "Feature", "geometry": {"type": "Point", "coordinates": [118.0924, 24.457954]}, "properties": {"category": "反光镜", "color": "#483e52"}}, {"type": "Feature", "geometry": {"type": "Point", "coordinates": [118.093999, 24.457994]}, "properties": {"category": "指示牌", "color": "#0d537f"}}, {"type": "Feature", "geometry": {"type": "Point", "coordinates": [118.092583, 24.457921]}, "properties": {"category": "宣传栏", "color": "#62bc56"}}, {"type": "Feature", "geometry": {"type": "Point", "coordinates": [118.092668, 24.457924]}, "properties": {"category": "指示牌", "color": "#0d537f"}}, {"type": "Feature", "geometry": {"type": "Point", "coordinates": [118.092935, 24.45792]}, "properties": {"category": "指示牌", "color": "#0d537f"}}, {"type": "Feature", "geometry": {"type": "Point", "coordinates": [118.094992, 24.45797]}, "properties": {"category": "宣传栏", "color": "#62bc56"}}, {"type": "Feature", "geometry": {"type": "Point", "coordinates": [118.091759, 24.45787]}, "properties": {"category": "宣传栏", "color": "#62bc56"}}, {"type": "Feature", "geometry": {"type": "Point", "coordinates": [118.09185, 24.457872]}, "properties": {"category": "指示牌", "color": "#0d537f"}}, {"type": "Feature", "geometry": {"type": "Point", "coordinates": [118.091965, 24.457871]}, "properties": {"category": "垃圾桶", "color": "#01774b"}}, {"type": "Feature", "geometry": {"type": "Point", "coordinates": [118.092102, 24.457851]}, "properties": {"category": "路灯", "color": "#e02020"}}, {"type": "Feature", "geometry": {"type": "Point", "coordinates": [118.092217, 24.457854]}, "properties": {"category": "路灯", "color": "#e02020"}}, {"type": "Feature", "geometry": {"type": "Point", "coordinates": [118.092334, 24.457859]}, "properties": {"category": "路灯", "color": "#e02020"}}, {"type": "Feature", "geometry": {"type": "Point", "coordinates": [118.091178, 24.457793]}, "properties": {"category": "路灯", "color": "#e02020"}}, {"type": "Feature", "geometry": {"type": "Point", "coordinates": [118.092568, 24.457833]}, "properties": {"category": "路灯", "color": "#e02020"}}, {"type": "Feature", "geometry": {"type": "Point", "coordinates": [118.093797, 24.457867]}, "properties": {"category": "路灯", "color": "#e02020"}}, {"type": "Feature", "geometry": {"type": "Point", "coordinates": [118.094377, 24.457885]}, "properties": {"category": "路灯", "color": "#e02020"}}, {"type": "Feature", "geometry": {"type": "Point", "coordinates": [118.091714, 24.457782]}, "properties": {"category": "灭火器", "color": "#e41961"}}, {"type": "Feature", "geometry": {"type": "Point", "coordinates": [118.091866, 24.457784]}, "properties": {"category": "灭火器", "color": "#e41961"}}, {"type": "Feature", "geometry": {"type": "Point", "coordinates": [118.092829, 24.457811]}, "properties": {"category": "路灯", "color": "#e02020"}}, {"type": "Feature", "geometry": {"type": "Point", "coordinates": [118.094121, 24.457847]}, "properties": {"category": "路灯", "color": "#e02020"}}, {"type": "Feature", "geometry": {"type": "Point", "coordinates": [118.094042, 24.457841]}, "properties": {"category": "宣传栏", "color": "#62bc56"}}, {"type": "Feature", "geometry": {"type": "Point", "coordinates": [118.094293, 24.457849]}, "properties": {"category": "宣传栏", "color": "#62bc56"}}, {"type": "Feature", "geometry": {"type": "Point", "coordinates": [118.09483, 24.457839]}, "properties": {"category": "路灯", "color": "#e02020"}}, {"type": "Feature", "geometry": {"type": "Point", "coordinates": [118.091141, 24.457735]}, "properties": {"category": "宣传栏", "color": "#62bc56"}}, {"type": "Feature", "geometry": {"type": "Point", "coordinates": [118.093195, 24.457778]}, "properties": {"category": "晾衣架", "color": "#e87110"}}, {"type": "Feature", "geometry": {"type": "Point", "coordinates": [118.094898, 24.457805]}, "properties": {"category": "指示牌", "color": "#0d537f"}}, {"type": "Feature", "geometry": {"type": "Point", "coordinates": [118.091071, 24.457681]}, "properties": {"category": "垃圾桶", "color": "#01774b"}}, {"type": "Feature", "geometry": {"type": "Point", "coordinates": [118.091275, 24.457671]}, "properties": {"category": "指示牌", "color": "#0d537f"}}, {"type": "Feature", "geometry": {"type": "Point", "coordinates": [118.094227, 24.457727]}, "properties": {"category": "座椅", "color": "#f4ef6b"}}, {"type": "Feature", "geometry": {"type": "Point", "coordinates": [118.09444, 24.457739]}, "properties": {"category": "座椅", "color": "#f4ef6b"}}, {"type": "Feature", "geometry": {"type": "Point", "coordinates": [118.094555, 24.457728]}, "properties": {"category": "路灯", "color": "#e02020"}}, {"type": "Feature", "geometry": {"type": "Point", "coordinates": [118.091011, 24.457596]}, "properties": {"category": "路灯", "color": "#e02020"}}, {"type": "Feature", "geometry": {"type": "Point", "coordinates": [118.090932, 24.457512]}, "properties": {"category": "指示牌", "color": "#0d537f"}}, {"type": "Feature", "geometry": {"type": "Point", "coordinates": [118.090888, 24.457445]}, "properties": {"category": "路灯", "color": "#e02020"}}, {"type": "Feature", "geometry": {"type": "Point", "coordinates": [118.093853, 24.457499]}, "properties": {"category": "指示牌", "color": "#0d537f"}}, {"type": "Feature", "geometry": {"type": "Point", "coordinates": [118.094017, 24.457396]}, "properties": {"category": "灭火器", "color": "#e41961"}}, {"type": "Feature", "geometry": {"type": "Point", "coordinates": [118.091011, 24.457336]}, "properties": {"category": "指示牌", "color": "#0d537f"}}, {"type": "Feature", "geometry": {"type": "Point", "coordinates": [118.094463, 24.457435]}, "properties": {"category": "座椅", "color": "#f4ef6b"}}, {"type": "Feature", "geometry": {"type": "Point", "coordinates": [118.094629, 24.457412]}, "properties": {"category": "宣传栏", "color": "#62bc56"}}, {"type": "Feature", "geometry": {"type": "Point", "coordinates": [118.090355, 24.457273]}, "properties": {"category": "路灯", "color": "#e02020"}}, {"type": "Feature", "geometry": {"type": "Point", "coordinates": [118.090789, 24.457286]}, "properties": {"category": "指示牌", "color": "#0d537f"}}, {"type": "Feature", "geometry": {"type": "Point", "coordinates": [118.09376, 24.457372]}, "properties": {"category": "宣传栏", "color": "#62bc56"}}, {"type": "Feature", "geometry": {"type": "Point", "coordinates": [118.093836, 24.457375]}, "properties": {"category": "指示牌", "color": "#0d537f"}}, {"type": "Feature", "geometry": {"type": "Point", "coordinates": [118.090446, 24.457248]}, "properties": {"category": "指示牌", "color": "#0d537f"}}, {"type": "Feature", "geometry": {"type": "Point", "coordinates": [118.093968, 24.457319]}, "properties": {"category": "垃圾桶", "color": "#01774b"}}, {"type": "Feature", "geometry": {"type": "Point", "coordinates": [118.094151, 24.457322]}, "properties": {"category": "指示牌", "color": "#0d537f"}}, {"type": "Feature", "geometry": {"type": "Point", "coordinates": [118.090721, 24.457203]}, "properties": {"category": "路灯", "color": "#e02020"}}, {"type": "Feature", "geometry": {"type": "Point", "coordinates": [118.093729, 24.45726]}, "properties": {"category": "路灯", "color": "#e02020"}}, {"type": "Feature", "geometry": {"type": "Point", "coordinates": [118.093524, 24.457239]}, "properties": {"category": "路灯", "color": "#e02020"}}, {"type": "Feature", "geometry": {"type": "Point", "coordinates": [118.093649, 24.457241]}, "properties": {"category": "指示牌", "color": "#0d537f"}}, {"type": "Feature", "geometry": {"type": "Point", "coordinates": [118.090301, 24.457124]}, "properties": {"category": "路灯", "color": "#e02020"}}, {"type": "Feature", "geometry": {"type": "Point", "coordinates": [118.093331, 24.457203]}, "properties": {"category": "路灯", "color": "#e02020"}}, {"type": "Feature", "geometry": {"type": "Point", "coordinates": [118.094502, 24.45725]}, "properties": {"category": "宣传栏", "color": "#62bc56"}}, {"type": "Feature", "geometry": {"type": "Point", "coordinates": [118.093984, 24.457222]}, "properties": {"category": "座椅", "color": "#f4ef6b"}}, {"type": "Feature", "geometry": {"type": "Point", "coordinates": [118.092334, 24.457153]}, "properties": {"category": "座椅", "color": "#f4ef6b"}}, {"type": "Feature", "geometry": {"type": "Point", "coordinates": [118.092424, 24.457152]}, "properties": {"category": "路灯", "color": "#e02020"}}, {"type": "Feature", "geometry": {"type": "Point", "coordinates": [118.093252, 24.457184]}, "properties": {"category": "垃圾桶", "color": "#01774b"}}, {"type": "Feature", "geometry": {"type": "Point", "coordinates": [118.093166, 24.457169]}, "properties": {"category": "垃圾桶", "color": "#01774b"}}, {"type": "Feature", "geometry": {"type": "Point", "coordinates": [118.092173, 24.457124]}, "properties": {"category": "座椅", "color": "#f4ef6b"}}, {"type": "Feature", "geometry": {"type": "Point", "coordinates": [118.092945, 24.457132]}, "properties": {"category": "路灯", "color": "#e02020"}}, {"type": "Feature", "geometry": {"type": "Point", "coordinates": [118.094122, 24.457173]}, "properties": {"category": "路灯", "color": "#e02020"}}, {"type": "Feature", "geometry": {"type": "Point", "coordinates": [118.090653, 24.45706]}, "properties": {"category": "路灯", "color": "#e02020"}}, {"type": "Feature", "geometry": {"type": "Point", "coordinates": [118.092768, 24.457112]}, "properties": {"category": "座椅", "color": "#f4ef6b"}}, {"type": "Feature", "geometry": {"type": "Point", "coordinates": [118.091983, 24.457084]}, "properties": {"category": "座椅", "color": "#f4ef6b"}}, {"type": "Feature", "geometry": {"type": "Point", "coordinates": [118.090272, 24.457026]}, "properties": {"category": "指示牌", "color": "#0d537f"}}, {"type": "Feature", "geometry": {"type": "Point", "coordinates": [118.092676, 24.457097]}, "properties": {"category": "座椅", "color": "#f4ef6b"}}, {"type": "Feature", "geometry": {"type": "Point", "coordinates": [118.092365, 24.457066]}, "properties": {"category": "宣传栏", "color": "#62bc56"}}, {"type": "Feature", "geometry": {"type": "Point", "coordinates": [118.092439, 24.457066]}, "properties": {"category": "宣传栏", "color": "#62bc56"}}, {"type": "Feature", "geometry": {"type": "Point", "coordinates": [118.092585, 24.457075]}, "properties": {"category": "垃圾桶", "color": "#01774b"}}, {"type": "Feature", "geometry": {"type": "Point", "coordinates": [118.094535, 24.457127]}, "properties": {"category": "座椅", "color": "#f4ef6b"}}, {"type": "Feature", "geometry": {"type": "Point", "coordinates": [118.092143, 24.457044]}, "properties": {"category": "路灯", "color": "#e02020"}}, {"type": "Feature", "geometry": {"type": "Point", "coordinates": [118.09229, 24.457056]}, "properties": {"category": "垃圾桶", "color": "#01774b"}}, {"type": "Feature", "geometry": {"type": "Point", "coordinates": [118.090807, 24.457002]}, "properties": {"category": "指示牌", "color": "#0d537f"}}, {"type": "Feature", "geometry": {"type": "Point", "coordinates": [118.093969, 24.45708]}, "properties": {"category": "路灯", "color": "#e02020"}}, {"type": "Feature", "geometry": {"type": "Point", "coordinates": [118.091973, 24.456997]}, "properties": {"category": "路灯", "color": "#e02020"}}, {"type": "Feature", "geometry": {"type": "Point", "coordinates": [118.094442, 24.457069]}, "properties": {"category": "座椅", "color": "#f4ef6b"}}, {"type": "Feature", "geometry": {"type": "Point", "coordinates": [118.092569, 24.456988]}, "properties": {"category": "路灯", "color": "#e02020"}}, {"type": "Feature", "geometry": {"type": "Point", "coordinates": [118.092371, 24.456975]}, "properties": {"category": "路灯", "color": "#e02020"}}, {"type": "Feature", "geometry": {"type": "Point", "coordinates": [118.091897, 24.456953]}, "properties": {"category": "指示牌", "color": "#0d537f"}}, {"type": "Feature", "geometry": {"type": "Point", "coordinates": [118.090725, 24.456899]}, "properties": {"category": "路灯", "color": "#e02020"}}, {"type": "Feature", "geometry": {"type": "Point", "coordinates": [118.091823, 24.456929]}, "properties": {"category": "路灯", "color": "#e02020"}}, {"type": "Feature", "geometry": {"type": "Point", "coordinates": [118.090837, 24.456843]}, "properties": {"category": "指示牌", "color": "#0d537f"}}, {"type": "Feature", "geometry": {"type": "Point", "coordinates": [118.091531, 24.456856]}, "properties": {"category": "指示牌", "color": "#0d537f"}}, {"type": "Feature", "geometry": {"type": "Point", "coordinates": [118.091685, 24.456845]}, "properties": {"category": "路灯", "color": "#e02020"}}, {"type": "Feature", "geometry": {"type": "Point", "coordinates": [118.094267, 24.456925]}, "properties": {"category": "垃圾桶", "color": "#01774b"}}, {"type": "Feature", "geometry": {"type": "Point", "coordinates": [118.092758, 24.45685]}, "properties": {"category": "路灯", "color": "#e02020"}}, {"type": "Feature", "geometry": {"type": "Point", "coordinates": [118.092838, 24.456834]}, "properties": {"category": "指示牌", "color": "#0d537f"}}, {"type": "Feature", "geometry": {"type": "Point", "coordinates": [118.091317, 24.456769]}, "properties": {"category": "指示牌", "color": "#0d537f"}}, {"type": "Feature", "geometry": {"type": "Point", "coordinates": [118.091463, 24.456772]}, "properties": {"category": "指示牌", "color": "#0d537f"}}, {"type": "Feature", "geometry": {"type": "Point", "coordinates": [118.094189, 24.456855]}, "properties": {"category": "垃圾桶", "color": "#01774b"}}, {"type": "Feature", "geometry": {"type": "Point", "coordinates": [118.090735, 24.456729]}, "properties": {"category": "路灯", "color": "#e02020"}}, {"type": "Feature", "geometry": {"type": "Point", "coordinates": [118.09325, 24.456763]}, "properties": {"category": "路灯", "color": "#e02020"}}, {"type": "Feature", "geometry": {"type": "Point", "coordinates": [118.091754, 24.456713]}, "properties": {"category": "灭火器", "color": "#e41961"}}, {"type": "Feature", "geometry": {"type": "Point", "coordinates": [118.090867, 24.456664]}, "properties": {"category": "指示牌", "color": "#0d537f"}}, {"type": "Feature", "geometry": {"type": "Point", "coordinates": [118.093068, 24.456729]}, "properties": {"category": "路灯", "color": "#e02020"}}, {"type": "Feature", "geometry": {"type": "Point", "coordinates": [118.091309, 24.45664]}, "properties": {"category": "路灯", "color": "#e02020"}}, {"type": "Feature", "geometry": {"type": "Point", "coordinates": [118.092866, 24.456683]}, "properties": {"category": "路灯", "color": "#e02020"}}, {"type": "Feature", "geometry": {"type": "Point", "coordinates": [118.090965, 24.45661]}, "properties": {"category": "灭火器", "color": "#e41961"}}, {"type": "Feature", "geometry": {"type": "Point", "coordinates": [118.093363, 24.456649]}, "properties": {"category": "路灯", "color": "#e02020"}}, {"type": "Feature", "geometry": {"type": "Point", "coordinates": [118.090767, 24.456559]}, "properties": {"category": "路灯", "color": "#e02020"}}, {"type": "Feature", "geometry": {"type": "Point", "coordinates": [118.093253, 24.456577]}, "properties": {"category": "路灯", "color": "#e02020"}}, {"type": "Feature", "geometry": {"type": "Point", "coordinates": [118.090783, 24.456478]}, "properties": {"category": "灭火器", "color": "#e41961"}}, {"type": "Feature", "geometry": {"type": "Point", "coordinates": [118.092897, 24.456536]}, "properties": {"category": "路灯", "color": "#e02020"}}, {"type": "Feature", "geometry": {"type": "Point", "coordinates": [118.090791, 24.456388]}, "properties": {"category": "路灯", "color": "#e02020"}}, {"type": "Feature", "geometry": {"type": "Point", "coordinates": [118.093328, 24.456446]}, "properties": {"category": "路灯", "color": "#e02020"}}, {"type": "Feature", "geometry": {"type": "Point", "coordinates": [118.0929, 24.456382]}, "properties": {"category": "路灯", "color": "#e02020"}}, {"type": "Feature", "geometry": {"type": "Point", "coordinates": [118.089939, 24.456303]}, "properties": {"category": "宣传栏", "color": "#62bc56"}}, {"type": "Feature", "geometry": {"type": "Point", "coordinates": [118.090806, 24.456308]}, "properties": {"category": "指示牌", "color": "#0d537f"}}, {"type": "Feature", "geometry": {"type": "Point", "coordinates": [118.090914, 24.456312]}, "properties": {"category": "路灯", "color": "#e02020"}}, {"type": "Feature", "geometry": {"type": "Point", "coordinates": [118.090792, 24.456225]}, "properties": {"category": "路灯", "color": "#e02020"}}, {"type": "Feature", "geometry": {"type": "Point", "coordinates": [118.090754, 24.456141]}, "properties": {"category": "指示牌", "color": "#0d537f"}}, {"type": "Feature", "geometry": {"type": "Point", "coordinates": [118.092832, 24.456149]}, "properties": {"category": "路灯", "color": "#e02020"}}, {"type": "Feature", "geometry": {"type": "Point", "coordinates": [118.092764, 24.45605]}, "properties": {"category": "路灯", "color": "#e02020"}}, {"type": "Feature", "geometry": {"type": "Point", "coordinates": [118.09268, 24.455953]}, "properties": {"category": "路灯", "color": "#e02020"}}]}